[{"OBJECT_NAME":"LEMUR-2-PETERG","OBJECT_ID":"2017-042S","EPOCH":"2026-03-09T11:34:35.656032","MEAN_MOTION":15.29611459,"ECCENTRICITY":0.00037,"INCLINATION":97.398,"RA_OF_ASC_NODE":253.6596,"ARG_OF_PERICENTER":341.6938,"MEAN_ANOMALY":18.4169,"EPHEMERIS_TYPE":0,"CLASSIFICATION_TYPE":"U","NORAD_CAT_ID":42841,"ELEMENT_SET_NO":999,"REV_AT_EPOCH":47317,"BSTAR":0.00081076471,"MEAN_MOTION_DOT":0.0002324,"MEAN_MOTION_DDOT":0},{"OBJECT_NAME":"STARLINK-34066","OBJECT_ID":"2025-095V","EPOCH":"2026-03-09T08:17:16.405728","MEAN_MOTION":15.27642769,"ECCENTRICITY":0.00034442,"INCLINATION":43.0035,"RA_OF_ASC_NODE":178.2952,"ARG_OF_PERICENTER":288.9698,"MEAN_ANOMALY":71.078,"EPHEMERIS_TYPE":0,"CLASSIFICATION_TYPE":"U","NORAD_CAT_ID":63909,"ELEMENT_SET_NO":999,"REV_AT_EPOCH":4772,"BSTAR":0.0016071899,"MEAN_MOTION_DOT":0.0004432,"MEAN_MOTION_DDOT":0}]
